OBJECT_NAME,OBJECT_ID,EPOCH,MEAN_MOTION,ECCENTRICITY,INCLINATION,RA_OF_ASC_NODE,ARG_OF_PERICENTER,MEAN_ANOMALY,EPHEMERIS_TYPE,CLASSIFICATION_TYPE,NORAD_CAT_ID,ELEMENT_SET_NO,REV_AT_EPOCH,BSTAR,MEAN_MOTION_DOT,MEAN_MOTION_DDOT
STARLINK-37537,2026-126A,2026-06-26T13:49:01.007904,15.75289200,.0001403,97.2833,38.0134,120.9135,239.2269,0,U,69420,999,422,.16845E-2,.260036E-2,0
STARLINK-37585,2026-126B,2026-06-26T21:11:10.128768,15.75228223,.00010523,97.2840,38.3617,91.2849,268.8537,0,U,69421,999,427,.12492225E-2,.190734E-2,0
STARLINK-37573,2026-126C,2026-06-26T06:16:11.881632,15.75197573,.0002503,97.2845,37.6765,103.8222,256.3322,0,U,69422,999,417,.17112E-2,.263235E-2,0
STARLINK-37820,2026-126D,2026-06-26T09:48:38.356992,15.79991998,.0000954,97.2842,37.9353,101.4073,258.7301,0,U,69423,999,420,.11332E-2,.214167E-2,0
STARLINK-37822,2026-126E,2026-06-26T20:44:14.066016,15.75241586,.00004476,97.2848,38.3882,26.1069,334.0219,0,U,69424,999,427,.11901095E-2,.181614E-2,0
STARLINK-37836,2026-126F,2026-06-26T20:26:33.012672,15.80112558,.00009336,97.2832,38.4045,127.6740,232.4612,0,U,69425,999,427,.2017237E-2,.391436E-2,0
STARLINK-37850,2026-126G,2026-06-26T22:00:01.999584,15.79578668,.00014359,97.2838,38.4732,115.3919,254.7325,0,U,69426,999,433,-.11849526E-1,-.1877443E-1,0
STARLINK-37823,2026-126H,2026-06-26T22:00:01.999584,15.75177409,.00015055,97.2840,38.4276,93.2391,169.1987,0,U,69427,999,428,.24559366E-4,.3533E-4,0
STARLINK-37834,2026-126J,2026-06-26T21:05:34.818144,15.75224171,.00018501,97.2843,38.3671,102.1820,257.9653,0,U,69428,999,427,.12613058E-2,.192593E-2,0
STARLINK-37857,2026-126K,2026-06-26T22:00:01.999584,15.75178108,.00015312,97.2836,38.4347,102.8499,175.5895,0,U,69429,999,428,-.1017716E-3,-.15275E-3,0
STARLINK-37866,2026-126L,2026-06-26T09:46:52.752000,15.81198226,.0018838,97.2857,37.9371,13.3404,346.8359,0,U,69430,999,425,.17383E-1,.4058567E-1,0
STARLINK-37555,2026-126M,2026-06-26T03:41:12.562368,15.79964663,.0008402,97.2841,37.6700,206.2424,153.8420,0,U,69431,999,421,.98220987E-3,.185119E-2,0
STARLINK-37870,2026-126N,2026-06-26T08:15:45.503424,15.78013687,.00065868,97.2837,37.8703,56.6543,303.5354,0,U,69432,999,419,.181288E-2,.317721E-2,0
STARLINK-37872,2026-126P,2026-06-26T22:00:01.999584,15.79874298,.00011056,97.2838,38.4763,108.0253,269.3360,0,U,69433,999,428,.62685216E-3,.11645E-2,0
STARLINK-37815,2026-126Q,2026-06-26T21:16:45.405696,15.75235800,.00017968,97.2834,38.3562,97.6003,262.5466,0,U,69434,999,427,.94743498E-3,.143879E-2,0
STARLINK-37801,2026-126R,2026-06-26T22:00:01.999584,15.75171558,.00014738,97.2843,38.4239,96.0765,154.3643,0,U,69435,999,433,.79039512E-4,.11666E-3,0
STARLINK-37800,2026-126S,2026-06-26T20:59:28.787136,15.75265717,.00042657,97.2842,38.3730,106.7454,253.4279,0,U,69436,999,427,.18719804E-2,.289787E-2,0
STARLINK-37792,2026-126T,2026-06-26T20:23:25.923840,15.80003250,.0000234,97.2833,38.4075,60.7542,299.3749,0,U,69437,999,432,.12708082E-2,.241071E-2,0
STARLINK-37783,2026-126U,2026-06-26T20:22:54.734304,15.80105823,.00012448,97.2835,38.4078,133.3280,226.8092,0,U,69438,999,432,.18929611E-2,.366108E-2,0
STARLINK-37771,2026-126V,2026-06-25T13:21:46.147968,15.75250843,.0001316,97.2847,36.9513,102.8109,257.3303,0,U,69439,999,406,.11426E-2,.174281E-2,0
STARLINK-37747,2026-126W,2026-06-26T22:09:36.945792,15.75220886,.00013621,97.2836,38.4597,100.8094,259.3324,0,U,69440,999,428,.69354888E-3,.104735E-2,0
STARLINK-37629,2026-127A,2026-06-26T22:00:01.999584,15.75241611,.00008884,53.1587,214.0591,96.8100,74.2909,0,U,69443,999,420,-.95910794E-4,-.15315E-3,0
STARLINK-37509,2026-127B,2026-06-26T22:00:01.999584,15.75226415,.00010402,53.1591,214.0100,76.4740,118.5211,0,U,69444,999,420,-.3162312E-4,-.5481E-4,0
STARLINK-37641,2026-127C,2026-06-26T22:21:51.428736,15.75284664,.0001342,53.1584,213.7722,99.9683,260.1489,0,U,69445,999,294,.80395046E-3,.124677E-2,0
STARLINK-37522,2026-127D,2026-06-26T22:00:01.999584,15.75232664,.00010174,53.1593,214.0059,91.1880,105.6682,0,U,69446,999,420,.27244067E-4,.3538E-4,0
STARLINK-37640,2026-127E,2026-06-26T14:26:19.942944,15.78531032,.0000725,53.1582,215.2618,143.2736,216.8335,0,U,69447,999,289,-.56584E-2,-.904148E-2,0
STARLINK-37572,2026-127F,2026-06-26T22:00:01.999584,15.75245809,.00010242,53.1592,213.9033,81.8192,164.6789,0,U,69448,999,420,-.11449349E-3,-.18157E-3,0
STARLINK-37643,2026-127G,2026-06-26T22:00:01.999584,15.75224481,.00011921,53.1595,213.9562,76.3689,144.3826,0,U,69449,999,420,-.9735422E-5,-.213E-4,0
STARLINK-37601,2026-127H,2026-06-26T19:32:12.793344,15.75351832,.00017664,53.1596,214.4622,62.5706,297.5493,0,U,69450,999,292,.2054562E-2,.328449E-2,0
