STARLINK-37537          
1 69420U 26126A   26177.57570611  .00260036  00000+0  16845-2 0  9995
2 69420  97.2833  38.0134 0001403 120.9135 239.2269 15.75289200  4223
STARLINK-37585          
1 69421U 26126B   26177.88275612  .00190734  00000+0  12492-2 0  9994
2 69421  97.2840  38.3617 0001052  91.2849 268.8537 15.75228223  4272
STARLINK-37573          
1 69422U 26126C   26177.26124863  .00263235  00000+0  17112-2 0  9999
2 69422  97.2845  37.6765 0002503 103.8222 256.3322 15.75197573  4177
STARLINK-37820          
1 69423U 26126D   26177.40877728  .00214167  00000+0  11332-2 0  9999
2 69423  97.2842  37.9353 0000954 101.4073 258.7301 15.79991998  4201
STARLINK-37822          
1 69424U 26126E   26177.86405169  .00181614  00000+0  11901-2 0  9998
2 69424  97.2848  38.3882 0000447  26.1069 334.0219 15.75241586  4275
STARLINK-37836          
1 69425U 26126F   26177.85177098  .00391436  00000+0  20172-2 0  9990
2 69425  97.2832  38.4045 0000933 127.6740 232.4612 15.80112558  4274
STARLINK-37850          
1 69426U 26126G   26177.91668981 -.01877443  00000+0 -11850-1 0  9996
2 69426  97.2838  38.4732 0001435 115.3919 254.7325 15.79578668  4335
STARLINK-37823          
1 69427U 26126H   26177.91668981  .00003533  00000+0  24559-4 0  9998
2 69427  97.2840  38.4276 0001505  93.2391 169.1987 15.75177409  4289
STARLINK-37834          
1 69428U 26126J   26177.87887521  .00192593  00000+0  12613-2 0  9998
2 69428  97.2843  38.3671 0001850 102.1820 257.9653 15.75224171  4275
STARLINK-37857          
1 69429U 26126K   26177.91668981 -.00015275  00000+0 -10177-3 0  9998
2 69429  97.2836  38.4347 0001531 102.8499 175.5895 15.75178108  4286
STARLINK-37866          
1 69430U 26126L   26177.40755500  .04058567  00000+0  17383-1 0  9995
2 69430  97.2857  37.9371 0018838  13.3404 346.8359 15.81198226  4257
STARLINK-37555          
1 69431U 26126M   26177.15361762  .00185119  00000+0  98221-3 0  9993
2 69431  97.2841  37.6700 0008402 206.2424 153.8420 15.79964663  4219
STARLINK-37870          
1 69432U 26126N   26177.34427666  .00317721  00000+0  18129-2 0  9995
2 69432  97.2837  37.8703 0006586  56.6543 303.5354 15.78013687  4197
STARLINK-37872          
1 69433U 26126P   26177.91668981  .00116450  00000+0  62685-3 0  9999
2 69433  97.2838  38.4763 0001105 108.0253 269.3360 15.79874298  4284
STARLINK-37815          
1 69434U 26126Q   26177.88663664  .00143879  00000+0  94743-3 0  9994
2 69434  97.2834  38.3562 0001796  97.6003 262.5466 15.75235800  4276
STARLINK-37801          
1 69435U 26126R   26177.91668981  .00011666  00000+0  79040-4 0  9998
2 69435  97.2843  38.4239 0001473  96.0765 154.3643 15.75171558  4330
STARLINK-37800          
1 69436U 26126S   26177.87463874  .00289787  00000+0  18720-2 0  9995
2 69436  97.2842  38.3730 0004265 106.7454 253.4279 15.75265717  4271
STARLINK-37792          
1 69437U 26126T   26177.84960560  .00241071  00000+0  12708-2 0  9991
2 69437  97.2833  38.4075 0000234  60.7542 299.3749 15.80003250  4329
STARLINK-37783          
1 69438U 26126U   26177.84924461  .00366108  00000+0  18930-2 0  9994
2 69438  97.2835  38.4078 0001244 133.3280 226.8092 15.80105823  4328
STARLINK-37771          
1 69439U 26126V   26176.55678412  .00174281  00000+0  11426-2 0  9996
2 69439  97.2847  36.9513 0001316 102.8109 257.3303 15.75250843  4062
STARLINK-37747          
1 69440U 26126W   26177.92334428  .00104735  00000+0  69355-3 0  9998
2 69440  97.2836  38.4597 0001362 100.8094 259.3324 15.75220886  4286
STARLINK-37629          
1 69443U 26127A   26177.91668981 -.00015315  00000+0 -95911-4 0  9990
2 69443  53.1587 214.0591 0000888  96.8100  74.2909 15.75241611  4207
STARLINK-37509          
1 69444U 26127B   26177.91668981 -.00005481  00000+0 -31623-4 0  9994
2 69444  53.1591 214.0100 0001040  76.4740 118.5211 15.75226415  4207
STARLINK-37641          
1 69445U 26127C   26177.93184524  .00124677  00000+0  80395-3 0  9999
2 69445  53.1584 213.7722 0001342  99.9683 260.1489 15.75284664  2947
STARLINK-37522          
1 69446U 26127D   26177.91668981  .00003538  00000+0  27244-4 0  9999
2 69446  53.1593 214.0059 0001017  91.1880 105.6682 15.75232664  4209
STARLINK-37640          
1 69447U 26127E   26177.60161971 -.00904148  00000+0 -56584-2 0  9999
2 69447  53.1582 215.2618 0000725 143.2736 216.8335 15.78531032  2893
STARLINK-37572          
1 69448U 26127F   26177.91668981 -.00018157  00000+0 -11449-3 0  9995
2 69448  53.1592 213.9033 0001024  81.8192 164.6789 15.75245809  4208
STARLINK-37643          
1 69449U 26127G   26177.91668981 -.00002130  00000+0 -97354-5 0  9991
2 69449  53.1595 213.9562 0001192  76.3689 144.3826 15.75224481  4205
STARLINK-37601          
1 69450U 26127H   26177.81403696  .00328449  00000+0  20546-2 0  9990
2 69450  53.1596 214.4622 0001766  62.5706 297.5493 15.75351832  2924
